BEIDOU-2 G7             
1 41586U 16037A   25061.54990994 -.00000356  00000+0  00000+0 0  9997
2 41586   1.5037  67.3487 0010261 332.2655  69.4635  1.00273859  2160
BEIDOU-3 M1             
1 43001U 17069A   25061.15001401  .00000012  00000+0  00000+0 0  9998
2 43001  56.2778  78.6824 0012239 302.8324  57.1017  1.86231046 49813
BEIDOU-3 M2             
1 43002U 17069B   25061.08775611  .00000012  00000+0  00000+0 0  9992
2 43002  56.2771  78.7206 0009623 321.7228  38.2614  1.86230832 49802
BEIDOU-3 M7             
1 43107U 18003A   25060.83452270 -.00000055  00000+0  00000+0 0  9990
2 43107  54.7366 318.7334 0004462  61.0403 299.0609  1.86232275 48550
BEIDOU-3 M8             
1 43108U 18003B   25060.24012348 -.00000051  00000+0  00000+0 0  9990
2 43108  54.7300 318.7383 0003472 285.8667  74.1526  1.86230763 48551
BEIDOU-3 M4             
1 43207U 18018A   25061.21816941  .00000011  00000+0  00000+0 0  9990
2 43207  56.2367  78.7604 0006558 341.7303  18.2979  1.86230958 47957
BEIDOU-3 M3             
1 43208U 18018B   25061.28469906  .00000010  00000+0  00000+0 0  9992
2 43208  56.2363  78.7624 0009773 312.1783  47.7900  1.86231053 47950
BEIDOU-3 M9             
1 43245U 18029A   25061.50366877 -.00000056  00000+0  00000+0 0  9994
2 43245  54.6114 316.3926 0001114 339.0329  21.0190  1.86232306 47114
BEIDOU-3 M10            
1 43246U 18029B   25058.74949808 -.00000041  00000+0  00000+0 0  9992
2 43246  54.6113 316.5157 0005057  11.4180 348.6537  1.86228838 47048
BEIDOU-2 IGSO-7         
1 43539U 18057A   25061.85397100 -.00000137  00000+0  00000+0 0  9992
2 43539  55.1592 167.1468 0085414 234.8503 178.2626  1.00288930 24394
BEIDOU-3 M5             
1 43581U 18062A   25061.12281831  .00000042  00000+0  00000+0 0  9992
2 43581  54.1094 198.3540 0001629 306.5389  53.4001  1.86228382 44841
BEIDOU-3 M6             
1 43582U 18062B   25061.52429000  .00000044  00000+0  00000+0 0  9991
2 43582  54.1090 198.3296 0006086  42.5261 317.4769  1.86229168 44852
BEIDOU-3 M12            
1 43602U 18067A   25060.38520561  .00000037  00000+0  00000+0 0  9998
2 43602  54.2014 197.0734 0008125  36.0447 323.9618  1.86227695 44314
