[
    {
        "OBJECT_NAME": "BEIDOU-2 G7",
        "OBJECT_ID": "2016-037A",
        "EPOCH": "2025-03-02T13:11:52.218816",
        "MEAN_MOTION": 1.00273859,
        "ECCENTRICITY": 0.0010261,
        "INCLINATION": 1.5037,
        "RA_OF_ASC_NODE": 67.3487,
        "ARG_OF_PERICENTER": 332.2655,
        "MEAN_ANOMALY": 69.4635,
        "EPHEMERIS_TYPE": 0,
        "CLASSIFICATION_TYPE": "U",
        "NORAD_CAT_ID": 41586,
        "ELEMENT_SET_NO": 999,
        "REV_AT_EPOCH": 216,
        "BSTAR": 0,
        "MEAN_MOTION_DOT": -3.56e-06,
        "MEAN_MOTION_DDOT": 0
    },
    {
        "OBJECT_NAME": "BEIDOU-3 M1",
        "OBJECT_ID": "2017-069A",
        "EPOCH": "2025-03-02T03:36:01.210464",
        "MEAN_MOTION": 1.86231046,
        "ECCENTRICITY": 0.0012239,
        "INCLINATION": 56.2778,
        "RA_OF_ASC_NODE": 78.6824,
        "ARG_OF_PERICENTER": 302.8324,
        "MEAN_ANOMALY": 57.1017,
        "EPHEMERIS_TYPE": 0,
        "CLASSIFICATION_TYPE": "U",
        "NORAD_CAT_ID": 43001,
        "ELEMENT_SET_NO": 999,
        "REV_AT_EPOCH": 4981,
        "BSTAR": 0,
        "MEAN_MOTION_DOT": 1.2e-07,
        "MEAN_MOTION_DDOT": 0
    },
    {
        "OBJECT_NAME": "BEIDOU-3 M2",
        "OBJECT_ID": "2017-069B",
        "EPOCH": "2025-03-02T02:06:22.127904",
        "MEAN_MOTION": 1.86230832,
        "ECCENTRICITY": 0.0009623,
        "INCLINATION": 56.2771,
        "RA_OF_ASC_NODE": 78.7206,
        "ARG_OF_PERICENTER": 321.7228,
        "MEAN_ANOMALY": 38.2614,
        "EPHEMERIS_TYPE": 0,
        "CLASSIFICATION_TYPE": "U",
        "NORAD_CAT_ID": 43002,
        "ELEMENT_SET_NO": 999,
        "REV_AT_EPOCH": 4980,
        "BSTAR": 0,
        "MEAN_MOTION_DOT": 1.2e-07,
        "MEAN_MOTION_DDOT": 0
    },
    {
        "OBJECT_NAME": "BEIDOU-3 M7",
        "OBJECT_ID": "2018-003A",
        "EPOCH": "2025-03-01T20:01:42.761280",
        "MEAN_MOTION": 1.86232275,
        "ECCENTRICITY": 0.0004462,
        "INCLINATION": 54.7366,
        "RA_OF_ASC_NODE": 318.7334,
        "ARG_OF_PERICENTER": 61.0403,
        "MEAN_ANOMALY": 299.0609,
        "EPHEMERIS_TYPE": 0,
        "CLASSIFICATION_TYPE": "U",
        "NORAD_CAT_ID": 43107,
        "ELEMENT_SET_NO": 999,
        "REV_AT_EPOCH": 4855,
        "BSTAR": 0,
        "MEAN_MOTION_DOT": -5.5e-07,
        "MEAN_MOTION_DDOT": 0
    },
    {
        "OBJECT_NAME": "BEIDOU-3 M8",
        "OBJECT_ID": "2018-003B",
        "EPOCH": "2025-03-01T05:45:46.668672",
        "MEAN_MOTION": 1.86230763,
        "ECCENTRICITY": 0.0003472,
        "INCLINATION": 54.73,
        "RA_OF_ASC_NODE": 318.7383,
        "ARG_OF_PERICENTER": 285.8667,
        "MEAN_ANOMALY": 74.1526,
        "EPHEMERIS_TYPE": 0,
        "CLASSIFICATION_TYPE": "U",
        "NORAD_CAT_ID": 43108,
        "ELEMENT_SET_NO": 999,
        "REV_AT_EPOCH": 4855,
        "BSTAR": 0,
        "MEAN_MOTION_DOT": -5.1e-07,
        "MEAN_MOTION_DDOT": 0
    },
    {
        "OBJECT_NAME": "BEIDOU-3 M4",
        "OBJECT_ID": "2018-018A",
        "EPOCH": "2025-03-02T05:14:09.837024",
        "MEAN_MOTION": 1.86230958,
        "ECCENTRICITY": 0.0006558,
        "INCLINATION": 56.2367,
        "RA_OF_ASC_NODE": 78.7604,
        "ARG_OF_PERICENTER": 341.7303,
        "MEAN_ANOMALY": 18.2979,
        "EPHEMERIS_TYPE": 0,
        "CLASSIFICATION_TYPE": "U",
        "NORAD_CAT_ID": 43207,
        "ELEMENT_SET_NO": 999,
        "REV_AT_EPOCH": 4795,
        "BSTAR": 0,
        "MEAN_MOTION_DOT": 1.1e-07,
        "MEAN_MOTION_DDOT": 0
    },
    {
        "OBJECT_NAME": "BEIDOU-3 M3",
        "OBJECT_ID": "2018-018B",
        "EPOCH": "2025-03-02T06:49:57.998784",
        "MEAN_MOTION": 1.86231053,
        "ECCENTRICITY": 0.0009773,
        "INCLINATION": 56.2363,
        "RA_OF_ASC_NODE": 78.7624,
        "ARG_OF_PERICENTER": 312.1783,
        "MEAN_ANOMALY": 47.79,
        "EPHEMERIS_TYPE": 0,
        "CLASSIFICATION_TYPE": "U",
        "NORAD_CAT_ID": 43208,
        "ELEMENT_SET_NO": 999,
        "REV_AT_EPOCH": 4795,
        "BSTAR": 0,
        "MEAN_MOTION_DOT": 1e-07,
        "MEAN_MOTION_DDOT": 0
    },
    {
        "OBJECT_NAME": "BEIDOU-3 M9",
        "OBJECT_ID": "2018-029A",
        "EPOCH": "2025-03-02T12:05:16.981728",
        "MEAN_MOTION": 1.86232306,
        "ECCENTRICITY": 0.0001114,
        "INCLINATION": 54.6114,
        "RA_OF_ASC_NODE": 316.3926,
        "ARG_OF_PERICENTER": 339.0329,
        "MEAN_ANOMALY": 21.019,
        "EPHEMERIS_TYPE": 0,
        "CLASSIFICATION_TYPE": "U",
        "NORAD_CAT_ID": 43245,
        "ELEMENT_SET_NO": 999,
        "REV_AT_EPOCH": 4711,
        "BSTAR": 0,
        "MEAN_MOTION_DOT": -5.6e-07,
        "MEAN_MOTION_DDOT": 0
    },
    {
        "OBJECT_NAME": "BEIDOU-3 M10",
        "OBJECT_ID": "2018-029B",
        "EPOCH": "2025-02-27T17:59:16.634112",
        "MEAN_MOTION": 1.86228838,
        "ECCENTRICITY": 0.0005057,
        "INCLINATION": 54.6113,
        "RA_OF_ASC_NODE": 316.5157,
        "ARG_OF_PERICENTER": 11.418,
        "MEAN_ANOMALY": 348.6537,
        "EPHEMERIS_TYPE": 0,
        "CLASSIFICATION_TYPE": "U",
        "NORAD_CAT_ID": 43246,
        "ELEMENT_SET_NO": 999,
        "REV_AT_EPOCH": 4704,
        "BSTAR": 0,
        "MEAN_MOTION_DOT": -4.1e-07,
        "MEAN_MOTION_DDOT": 0
    },
    {
        "OBJECT_NAME": "BEIDOU-2 IGSO-7",
        "OBJECT_ID": "2018-057A",
        "EPOCH": "2025-03-02T20:29:43.094400",
        "MEAN_MOTION": 1.0028893,
        "ECCENTRICITY": 0.0085414,
        "INCLINATION": 55.1592,
        "RA_OF_ASC_NODE": 167.1468,
        "ARG_OF_PERICENTER": 234.8503,
        "MEAN_ANOMALY": 178.2626,
        "EPHEMERIS_TYPE": 0,
        "CLASSIFICATION_TYPE": "U",
        "NORAD_CAT_ID": 43539,
        "ELEMENT_SET_NO": 999,
        "REV_AT_EPOCH": 2439,
        "BSTAR": 0,
        "MEAN_MOTION_DOT": -1.37e-06,
        "MEAN_MOTION_DDOT": 0
    },
    {
        "OBJECT_NAME": "BEIDOU-3 M5",
        "OBJECT_ID": "2018-062A",
        "EPOCH": "2025-03-02T02:56:51.501984",
        "MEAN_MOTION": 1.86228382,
        "ECCENTRICITY": 0.0001629,
        "INCLINATION": 54.1094,
        "RA_OF_ASC_NODE": 198.354,
        "ARG_OF_PERICENTER": 306.5389,
        "MEAN_ANOMALY": 53.4001,
        "EPHEMERIS_TYPE": 0,
        "CLASSIFICATION_TYPE": "U",
        "NORAD_CAT_ID": 43581,
        "ELEMENT_SET_NO": 999,
        "REV_AT_EPOCH": 4484,
        "BSTAR": 0,
        "MEAN_MOTION_DOT": 4.2e-07,
        "MEAN_MOTION_DDOT": 0
    },
    {
        "OBJECT_NAME": "BEIDOU-3 M6",
        "OBJECT_ID": "2018-062B",
        "EPOCH": "2025-03-02T12:34:58.656000",
        "MEAN_MOTION": 1.86229168,
        "ECCENTRICITY": 0.0006086,
        "INCLINATION": 54.109,
        "RA_OF_ASC_NODE": 198.3296,
        "ARG_OF_PERICENTER": 42.5261,
        "MEAN_ANOMALY": 317.4769,
        "EPHEMERIS_TYPE": 0,
        "CLASSIFICATION_TYPE": "U",
        "NORAD_CAT_ID": 43582,
        "ELEMENT_SET_NO": 999,
        "REV_AT_EPOCH": 4485,
        "BSTAR": 0,
        "MEAN_MOTION_DOT": 4.4e-07,
        "MEAN_MOTION_DDOT": 0
    },
    {
        "OBJECT_NAME": "BEIDOU-3 M12",
        "OBJECT_ID": "2018-067A",
        "EPOCH": "2025-03-01T09:14:41.764704",
        "MEAN_MOTION": 1.86227695,
        "ECCENTRICITY": 0.0008125,
        "INCLINATION": 54.2014,
        "RA_OF_ASC_NODE": 197.0734,
        "ARG_OF_PERICENTER": 36.0447,
        "MEAN_ANOMALY": 323.9618,
        "EPHEMERIS_TYPE": 0,
        "CLASSIFICATION_TYPE": "U",
        "NORAD_CAT_ID": 43602,
        "ELEMENT_SET_NO": 999,
        "REV_AT_EPOCH": 4431,
        "BSTAR": 0,
        "MEAN_MOTION_DOT": 3.7e-07,
        "MEAN_MOTION_DDOT": 0
    }
]